[{"OBJECT_NAME":"STARLINK-31630","OBJECT_ID":"2024-050T","EPOCH":"2026-03-09T13:39:04.940352","MEAN_MOTION":15.30200807,"ECCENTRICITY":0.0001409,"INCLINATION":53.16,"RA_OF_ASC_NODE":168.5079,"ARG_OF_PERICENTER":92.3163,"MEAN_ANOMALY":267.7999,"EPHEMERIS_TYPE":0,"CLASSIFICATION_TYPE":"U","NORAD_CAT_ID":59271,"ELEMENT_SET_NO":999,"REV_AT_EPOCH":11071,"BSTAR":-5.7526e-5,"MEAN_MOTION_DOT":-2.063e-5,"MEAN_MOTION_DDOT":0},{"OBJECT_NAME":"STARLINK-35731","OBJECT_ID":"2025-244Y","EPOCH":"2026-03-09T16:58:01.082208","MEAN_MOTION":15.30216386,"ECCENTRICITY":0.00012132,"INCLINATION":53.1598,"RA_OF_ASC_NODE":229.7217,"ARG_OF_PERICENTER":65.7768,"MEAN_ANOMALY":294.3359,"EPHEMERIS_TYPE":0,"CLASSIFICATION_TYPE":"U","NORAD_CAT_ID":66228,"ELEMENT_SET_NO":999,"REV_AT_EPOCH":2166,"BSTAR":0.00069964213,"MEAN_MOTION_DOT":0.0002043,"MEAN_MOTION_DDOT":0}]
